{
  "type": "FeatureCollection",
  "features": [
    {
      "type": "Feature",
      "properties": {
        "norad_id": 34350,
        "name": "IRIDIUM 33 DEB",
        "group": "iridium-33-debris",
        "lat": -28.085297878297496,
        "lon": -172.47723226132115,
        "alt_km": 737.2574764869769,
        "timestamp": "2025-12-06T09:34:17.299330+00:00",
        "meta_object_name": "IRIDIUM 33 DEB",
        "meta_object_id": "1997-051ES",
        "meta_epoch": "2025-12-05T13:22:41.911392",
        "meta_mean_motion": 14.45362197,
        "meta_eccentricity": 0.00220718,
        "meta_inclination": 86.3281,
        "meta_ra_of_asc_node": 5.9239,
        "meta_arg_of_pericenter": 157.7944,
        "meta_mean_anomaly": 354.8639,
        "meta_ephemeris_type": 0,
        "meta_classification_type": "U",
        "meta_norad_cat_id": 34350,
        "meta_element_set_no": 999,
        "meta_rev_at_epoch": 88189,
        "meta_bstar": 0.00057104893,
        "meta_mean_motion_dot": 2.032e-05,
        "meta_mean_motion_ddot": 0,
        "tle_line1": "1 34350U 97051ES  25339.55742953  .00002032  00000+0  57105-3 0  9996",
        "tle_line2": "2 34350  86.3281   5.9239 0022071 157.7944 354.8639 14.45362197881896"
      },
      "geometry": {
        "type": "Point",
        "coordinates": [
          -172.47723226132115,
          -28.085297878297496
        ]
      }
    },
    {
      "type": "Feature",
      "properties": {
        "norad_id": 34366,
        "name": "IRIDIUM 33 DEB",
        "group": "iridium-33-debris",
        "lat": -21.168269259732067,
        "lon": 50.66206790422182,
        "alt_km": 733.6237424974452,
        "timestamp": "2025-12-06T09:34:17.299340+00:00",
        "meta_object_name": "IRIDIUM 33 DEB",
        "meta_object_id": "1997-051FJ",
        "meta_epoch": "2025-12-05T16:05:01.645152",
        "meta_mean_motion": 14.53959428,
        "meta_eccentricity": 0.00219245,
        "meta_inclination": 86.3705,
        "meta_ra_of_asc_node": 52.3872,
        "meta_arg_of_pericenter": 162.3006,
        "meta_mean_anomaly": 325.0781,
        "meta_ephemeris_type": 0,
        "meta_classification_type": "U",
        "meta_norad_cat_id": 34366,
        "meta_element_set_no": 999,
        "meta_rev_at_epoch": 88079,
        "meta_bstar": 0.0022295515,
        "meta_mean_motion_dot": 9.442e-05,
        "meta_mean_motion_ddot": 0,
        "tle_line1": "1 34366U 97051FJ  25339.67015793  .00009442  00000+0  22296-2 0  9995",
        "tle_line2": "2 34366  86.3705  52.3872 0021924 162.3006 325.0781 14.53959428880794"
      },
      "geometry": {
        "type": "Point",
        "coordinates": [
          50.66206790422182,
          -21.168269259732067
        ]
      }
    },
    {
      "type": "Feature",
      "properties": {
        "norad_id": 34375,
        "name": "IRIDIUM 33 DEB",
        "group": "iridium-33-debris",
        "lat": -5.32826251856149,
        "lon": -175.08077524653513,
        "alt_km": 901.0842511910005,
        "timestamp": "2025-12-06T09:34:17.299350+00:00",
        "meta_object_name": "IRIDIUM 33 DEB",
        "meta_object_id": "1997-051FT",
        "meta_epoch": "2025-12-05T15:16:24.636000",
        "meta_mean_motion": 14.17972992,
        "meta_eccentricity": 0.01027304,
        "meta_inclination": 86.433,
        "meta_ra_of_asc_node": 185.5598,
        "meta_arg_of_pericenter": 149.095,
        "meta_mean_anomaly": 276.7622,
        "meta_ephemeris_type": 0,
        "meta_classification_type": "U",
        "meta_norad_cat_id": 34375,
        "meta_element_set_no": 999,
        "meta_rev_at_epoch": 86611,
        "meta_bstar": 0.00068728218,
        "meta_mean_motion_dot": 1.5e-05,
        "meta_mean_motion_ddot": 0,
        "tle_line1": "1 34375U 97051FT  25339.63639625  .00001500  00000+0  68728-3 0  9995",
        "tle_line2": "2 34375  86.4330 185.5598 0102730 149.0950 276.7622 14.17972992866115"
      },
      "geometry": {
        "type": "Point",
        "coordinates": [
          -175.08077524653513,
          -5.32826251856149
        ]
      }
    },
    {
      "type": "Feature",
      "properties": {
        "norad_id": 34376,
        "name": "IRIDIUM 33 DEB",
        "group": "iridium-33-debris",
        "lat": 72.33217295358838,
        "lon": 21.11802065597931,
        "alt_km": 686.4377583661944,
        "timestamp": "2025-12-06T09:34:17.299360+00:00",
        "meta_object_name": "IRIDIUM 33 DEB",
        "meta_object_id": "1997-051FU",
        "meta_epoch": "2025-12-05T20:06:04.766688",
        "meta_mean_motion": 14.62418886,
        "meta_eccentricity": 0.00263993,
        "meta_inclination": 86.2983,
        "meta_ra_of_asc_node": 9.6431,
        "meta_arg_of_pericenter": 190.1078,
        "meta_mean_anomaly": 169.9606,
        "meta_ephemeris_type": 0,
        "meta_classification_type": "U",
        "meta_norad_cat_id": 34376,
        "meta_element_set_no": 999,
        "meta_rev_at_epoch": 87906,
        "meta_bstar": 0.0025581843,
        "meta_mean_motion_dot": 0.0001304,
        "meta_mean_motion_ddot": 0,
        "tle_line1": "1 34376U 97051FU  25339.83755517  .00013040  00000+0  25582-2 0  9999",
        "tle_line2": "2 34376  86.2983   9.6431 0026399 190.1078 169.9606 14.62418886879064"
      },
      "geometry": {
        "type": "Point",
        "coordinates": [
          21.11802065597931,
          72.33217295358838
        ]
      }
    },
    {
      "type": "Feature",
      "properties": {
        "norad_id": 34486,
        "name": "IRIDIUM 33 DEB",
        "group": "iridium-33-debris",
        "lat": -75.39358664699104,
        "lon": -151.04072920644478,
        "alt_km": 593.5229267971254,
        "timestamp": "2025-12-06T09:34:17.299370+00:00",
        "meta_object_name": "IRIDIUM 33 DEB",
        "meta_object_id": "1997-051GB",
        "meta_epoch": "2025-12-05T13:52:10.857216",
        "meta_mean_motion": 14.95311877,
        "meta_eccentricity": 0.0013161,
        "meta_inclination": 86.3929,
        "meta_ra_of_asc_node": 15.3294,
        "meta_arg_of_pericenter": 136.3567,
        "meta_mean_anomaly": 23.1276,
        "meta_ephemeris_type": 0,
        "meta_classification_type": "U",
        "meta_norad_cat_id": 34486,
        "meta_element_set_no": 999,
        "meta_rev_at_epoch": 88879,
        "meta_bstar": 0.0036168434,
        "meta_mean_motion_dot": 0.00040118,
        "meta_mean_motion_ddot": 0,
        "tle_line1": "1 34486U 97051GB  25339.57790344  .00040118  00000+0  36168-2 0  9997",
        "tle_line2": "2 34486  86.3929  15.3294 0013161 136.3567  23.1276 14.95311877888798"
      },
      "geometry": {
        "type": "Point",
        "coordinates": [
          -151.04072920644478,
          -75.39358664699104
        ]
      }
    },
    {
      "type": "Feature",
      "properties": {
        "norad_id": 34487,
        "name": "IRIDIUM 33 DEB",
        "group": "iridium-33-debris",
        "lat": 24.141946824064245,
        "lon": 16.749415677977446,
        "alt_km": 760.1666210077528,
        "timestamp": "2025-12-06T09:34:17.299380+00:00",
        "meta_object_name": "IRIDIUM 33 DEB",
        "meta_object_id": "1997-051GC",
        "meta_epoch": "2025-12-05T08:34:04.230624",
        "meta_mean_motion": 14.43201608,
        "meta_eccentricity": 0.00321216,
        "meta_inclination": 86.3441,
        "meta_ra_of_asc_node": 15.5556,
        "meta_arg_of_pericenter": 151.732,
        "meta_mean_anomaly": 223.5238,
        "meta_ephemeris_type": 0,
        "meta_classification_type": "U",
        "meta_norad_cat_id": 34487,
        "meta_element_set_no": 999,
        "meta_rev_at_epoch": 88142,
        "meta_bstar": 0.00035058691,
        "meta_mean_motion_dot": 1.205e-05,
        "meta_mean_motion_ddot": 0,
        "tle_line1": "1 34487U 97051GC  25339.35699341  .00001205  00000+0  35059-3 0  9992",
        "tle_line2": "2 34487  86.3441  15.5556 0032121 151.7320 223.5238 14.43201608881426"
      },
      "geometry": {
        "type": "Point",
        "coordinates": [
          16.749415677977446,
          24.141946824064245
        ]
      }
    },
    {
      "type": "Feature",
      "properties": {
        "norad_id": 34488,
        "name": "IRIDIUM 33 DEB",
        "group": "iridium-33-debris",
        "lat": -34.106835647629175,
        "lon": 131.44284739045438,
        "alt_km": 499.9797121468555,
        "timestamp": "2025-12-06T09:34:17.299390+00:00",
        "meta_object_name": "IRIDIUM 33 DEB",
        "meta_object_id": "1997-051GD",
        "meta_epoch": "2025-12-05T15:20:16.790208",
        "meta_mean_motion": 15.26946078,
        "meta_eccentricity": 0.00151936,
        "meta_inclination": 86.3251,
        "meta_ra_of_asc_node": 309.323,
        "meta_arg_of_pericenter": 61.7168,
        "meta_mean_anomaly": 298.561,
        "meta_ephemeris_type": 0,
        "meta_classification_type": "U",
        "meta_norad_cat_id": 34488,
        "meta_element_set_no": 999,
        "meta_rev_at_epoch": 89131,
        "meta_bstar": 0.0066018309,
        "meta_mean_motion_dot": 0.00179045,
        "meta_mean_motion_ddot": 0,
        "tle_line1": "1 34488U 97051GD  25339.63908322  .00179045  00000+0  66018-2 0  9992",
        "tle_line2": "2 34488  86.3251 309.3230 0015193  61.7168 298.5610 15.26946078891313"
      },
      "geometry": {
        "type": "Point",
        "coordinates": [
          131.44284739045438,
          -34.106835647629175
        ]
      }
    }
  ]
}